NAVSTAR 68 (USA 242)    
1 39166U 13023A   22230.16857915 -.00000101  00000+0  00000+0 0  9996
2 39166  55.6535 325.3946 0103964  38.6190 322.1553  2.00565568 67829
NAVSTAR 69 (USA 248)    
1 39533U 14008A   22231.16715356  .00000057  00000+0  00000+0 0  9990
2 39533  53.6217 206.2948 0060748 209.8389 149.7983  2.00557045 61640
NAVSTAR 70 (USA 251)    
1 39741U 14026A   22229.45485855 -.00000088  00000+0  00000+0 0  9993
2 39741  56.5946  25.8567 0026237 305.6385  54.1277  2.00551691 60465
NAVSTAR 71 (USA 256)    
1 40105U 14045A   22231.03293371 -.00000031  00000+0  00000+0 0  9995
2 40105  54.7036 144.3063 0021538 110.9976 249.2544  2.00551532 58039
NAVSTAR 72 (USA 258)    
1 40294U 14068A   22230.90562169 -.00000055  00000+0  00000+0 0  9994
2 40294  55.8621  85.4678 0042724  57.6427 302.8419  2.00575998 57167
NAVSTAR 73 (USA 260)    
1 40534U 15013A   22231.04978653  .00000025  00000+0  00000+0 0  9993
2 40534  53.6661 262.1010 0069840  20.2228 340.1069  2.00548605 53786
NAVSTAR 74 (USA 262)    
1 40730U 15033A   22231.20853304 -.00000100  00000+0  00000+0 0  9991
2 40730  55.1496 324.1522 0073897   7.8014 352.3500  2.00575158 51950
NAVSTAR 75 (USA 265)    
1 41019U 15062A   22231.25560878 -.00000054  00000+0  00000+0 0  9998
2 41019  55.8501  85.2983 0079373 217.4226 142.0921  2.00562750 49794
NAVSTAR 76 (USA 266)    
1 41328U 16007A   22231.34452938 -.00000034  00000+0  00000+0 0  9996
2 41328  54.9194 144.9808 0062401 230.3998 129.0684  2.00567874 47801
NAVSTAR 77 (USA 289)    
1 43873U 18109A   22231.22199918 -.00000029  00000+0  00000+0 0  9995
2 43873  55.0994 147.4178 0019804 191.2315 334.9619  2.00553182 27038
NAVSTAR 78 (USA 293)    
1 44506U 19056A   22231.41548470 -.00000086  00000+0  00000+0 0  9996
2 44506  55.7085  26.5455 0027096 178.8210  26.7559  2.00558101 22032
NAVSTAR 79 (USA 304)    
1 45854U 20041A   22231.46433420 -.00000054  00000+0  00000+0 0  9997
2 45854  55.5695  83.8118 0024970 176.6089   0.7688  2.00558127 16007
NAVSTAR 80 (USA 309)    
1 46826U 20078A   22231.33125932  .00000018  00000+0  00000+0 0  9998
2 46826  54.5271 267.5428 0022660 190.6602 227.2940  2.00565220 13479
NAVSTAR 81 (USA 319)    
1 48859U 21054A   22230.24143301 -.00000088  00000+0  00000+0 0  9998
2 48859  55.2152  28.5616 0006628 191.8229 343.9417  2.00570087  8691
